[
  {
    "name": "HAIYANG 1D",
    "tle1": "1 45721U 20036A   26159.32202285  .00000229  00000-0  96953-4 0  9996",
    "tle2": "2 45721  98.4555 101.1947 0002873 148.4926 211.6431 14.34170831313708",
    "norad_id": "45721"
  },
  {
    "name": "TANSAT",
    "tle1": "1 41898U 16081A   26159.27030815  .00000487  00000-0  11200-3 0  9991",
    "tle2": "2 41898  98.5369 159.2648 0020219 340.7109  19.3323 14.59944136503325",
    "norad_id": "41898"
  },
  {
    "name": "SHIJIAN 6 03A (SJ-6 03A)",
    "tle1": "1 33408U 08053A   26159.27670682  .00005308  00000-0  27116-3 0  9991",
    "tle2": "2 33408  97.8416 192.2876 0012526  49.1304 311.1012 15.17080564961616",
    "norad_id": "33408"
  },
  {
    "name": "SJ-9A",
    "tle1": "1 38860U 12056A   26159.20554288  .00001472  00000-0  17601-3 0  9998",
    "tle2": "2 38860  97.6703 131.4824 0024037 288.2558  71.6042 14.85458355698254",
    "norad_id": "38860"
  },
  {
    "name": "KL-ALPHA A",
    "tle1": "1 44785U 19077A   26159.26565264  .00000035  00000-0  32410-4 0  9993",
    "tle2": "2 44785  88.9252 223.5399 0012795 128.1194 232.1116 13.56042458324527",
    "norad_id": "44785"
  },
  {
    "name": "GAOFEN 3",
    "tle1": "1 41727U 16049A   26159.27296390 -.00000070  00000-0 -80615-5 0  9996",
    "tle2": "2 41727  98.4016 167.1938 0001197  98.8930 261.2395 14.42214095517363",
    "norad_id": "41727"
  },
  {
    "name": "LEMUR 2 GREENBERG",
    "tle1": "1 42837U 17042N   26159.06861268  .00018086  00000-0  60391-3 0  9993",
    "tle2": "2 42837  97.3822 339.7378 0009405  45.2806 314.9199 15.31050243486996",
    "norad_id": "42837"
  },
  {
    "name": "HAIYANG 2D",
    "tle1": "1 48621U 21043A   26159.25563743  .00000096  00000-0  16062-3 0  9992",
    "tle2": "2 48621  65.9999 326.9364 0011380 270.3537  89.6227 13.83375947255313",
    "norad_id": "48621"
  },
  {
    "name": "GLOBAL-18",
    "tle1": "1 52196U 22034B   26158.68783574  .00024471  00000-0  50294-3 0  9995",
    "tle2": "2 52196  52.9826 302.0267 0003300 226.9821 133.0909 15.45867840235499",
    "norad_id": "52196"
  },
  {
    "name": "HAIYANG 1C",
    "tle1": "1 43609U 18068A   26159.31492468  .00000192  00000-0  84066-4 0  9995",
    "tle2": "2 43609  98.5186 231.7510 0011925 117.7680 242.4716 14.34176704405819",
    "norad_id": "43609"
  },
  {
    "name": "OBJECT A",
    "tle1": "1 53346U 22090A   26159.27974921  .00003594  00000-0  16347-3 0  9993",
    "tle2": "2 53346  97.3139 227.6406 0002511 207.8250 152.2852 15.21345813213458",
    "norad_id": "53346"
  },
  {
    "name": "CENTISPACE-1 S5",
    "tle1": "1 54020U 22126A   26159.20164396  .00000830  00000-0  19740-3 0  9993",
    "tle2": "2 54020  54.9988 248.9176 0014286  55.8143 304.4203 14.63000996195728",
    "norad_id": "54020"
  },
  {
    "name": "HAIYANG 2C",
    "tle1": "1 46469U 20066A   26159.27353249  .00000048  00000-0  11743-3 0  9992",
    "tle2": "2 46469  65.9968 237.4767 0009230 238.4485 121.5683 13.83374805288262",
    "norad_id": "46469"
  },
  {
    "name": "SDGSAT 1",
    "tle1": "1 49387U 21100A   26159.27720478  .00003869  00000-0  18322-3 0  9990",
    "tle2": "2 49387  97.2637 206.5576 0007183 335.5695  24.5199 15.19885361254562",
    "norad_id": "49387"
  },
  {
    "name": "ODIN",
    "tle1": "1 26702U 01007A   26159.06855770  .00163930  00000-0  11910-2 0  9992",
    "tle2": "2 26702  97.3856 199.4433 0006608 154.2551 205.9043 15.72855402387968",
    "norad_id": "26702"
  },
  {
    "name": "R2",
    "tle1": "1 46913U 20081J   26159.28219685  .00006926  00000-0  27206-3 0  9991",
    "tle2": "2 46913  36.8971 116.1716 0008293 218.0546 141.9618 15.25303959310624",
    "norad_id": "46913"
  },
  {
    "name": "GLOBAL-14",
    "tle1": "1 49469U 21106A   26158.80958062  .00028961  00000-0  50179-3 0  9993",
    "tle2": "2 49469  42.0063 346.7937 0017191 315.3626  44.5833 15.50136889256672",
    "norad_id": "49469"
  },
  {
    "name": "GLOBAL-9",
    "tle1": "1 47971U 21023G   26158.11176179  .00024138  00000-0  48586-3 0  9993",
    "tle2": "2 47971  44.9822 307.1421 0005324 267.1499  92.8782 15.46210962293386",
    "norad_id": "47971"
  },
  {
    "name": "GLOBAL-16",
    "tle1": "1 49950U 21120B   26159.08095039  .00027243  00000-0  48054-3 0  9992",
    "tle2": "2 49950  41.9945 107.0997 0011954 189.1366 170.9261 15.49742363253435",
    "norad_id": "49950"
  },
  {
    "name": "OBJECT P",
    "tle1": "1 54695U 22167P   26159.26938042  .00010128  00000-0  30025-3 0  9999",
    "tle2": "2 54695  97.6878 328.4060 0007286 141.6885 218.4877 15.35027254194022",
    "norad_id": "54695"
  },
  {
    "name": "OBJECT D",
    "tle1": "1 54254U 22155D   26159.30813352  .00245743  25064-4  70554-3 0  9993",
    "tle2": "2 54254  97.6120 311.2680 0003808 268.2402  91.8436 15.93133726198886",
    "norad_id": "54254"
  },
  {
    "name": "OBJECT J",
    "tle1": "1 53452U 22098J   26159.33952178  .00085164  00000-0  62462-3 0  9998",
    "tle2": "2 53452  97.5509 289.7741 0001296 308.9803  51.1345 15.72892130213400",
    "norad_id": "53452"
  },
  {
    "name": "OBJECT W",
    "tle1": "1 51844U 22019W   26122.21654317  .05241160  24727-5  95158-3 0  9995",
    "tle2": "2 51844  97.3487 219.1886 0012944 269.3704  90.6108 16.32236081232865",
    "norad_id": "51844"
  },
  {
    "name": "OBJECT K",
    "tle1": "1 53453U 22098K   26159.31837830  .00074339  00000-0  59373-3 0  9993",
    "tle2": "2 53453  97.5570 290.2996 0001242 237.8707 122.2434 15.70895996213367",
    "norad_id": "53453"
  },
  {
    "name": "JILIN-01 GAOFEN 3D 5",
    "tle1": "1 52390U 22046C   26113.45661189  .13701840  27051-5  25569-3 0  9990",
    "tle2": "2 52390  97.4814 232.7390 0010494 226.4735 133.5697 16.46858889222066",
    "norad_id": "52390"
  },
  {
    "name": "JILIN-01 GAOFEN 3D 28",
    "tle1": "1 52445U 22048C   26159.27224045  .00110515  00000-0  70540-3 0  9997",
    "tle2": "2 52445  97.5634 272.5308 0001646 145.8395 214.2976 15.76049609228128",
    "norad_id": "52445"
  },
  {
    "name": "JILIN-01 GAOFEN 3D 27",
    "tle1": "1 52444U 22048B   26159.25659258  .00095595  00000-0  68718-3 0  9996",
    "tle2": "2 52444  97.5698 272.3976 0002103  92.2134 267.9371 15.73331220228079",
    "norad_id": "52444"
  },
  {
    "name": "OBJECT H",
    "tle1": "1 54689U 22167H   26159.26724573  .00009616  00000-0  29221-3 0  9990",
    "tle2": "2 54689  97.6943 329.0288 0006006 135.3809 224.7918 15.34268989193994",
    "norad_id": "54689"
  },
  {
    "name": "OBJECT D",
    "tle1": "1 54685U 22167D   26159.29096808  .00010627  00000-0  30420-3 0  9999",
    "tle2": "2 54685  97.6899 329.9029 0003296 136.0863 224.0642 15.36133989194089",
    "norad_id": "54685"
  },
  {
    "name": "OBJECT E",
    "tle1": "1 54686U 22167E   26159.25590584  .00011470  00000-0  35668-3 0  9992",
    "tle2": "2 54686  97.6862 327.0865 0007962 190.5742 169.5333 15.33467931193951",
    "norad_id": "54686"
  },
  {
    "name": "EMISAT",
    "tle1": "1 44078U 19018A   26159.27297748  .00000231  00000-0  80793-4 0  9998",
    "tle2": "2 44078  98.4644 218.1219 0017326 243.1869 116.7550 14.43683356378776",
    "norad_id": "44078"
  },
  {
    "name": "IRS P6",
    "tle1": "1 28051U 03046A   26159.25426933  .00000104  00000-0  48441-4 0  9996",
    "tle2": "2 28051  98.1908 196.2052 0064510  10.2457 121.3319 14.36159440179243",
    "norad_id": "28051"
  },
  {
    "name": "RESOURCESAT 2",
    "tle1": "1 37387U 11015A   26159.22079397  .00000077  00000-0  55138-4 0  9998",
    "tle2": "2 37387  98.7644 226.7242 0010139 284.4978  75.5074 14.21604588784904",
    "norad_id": "37387"
  },
  {
    "name": "ORBCOMM FM 114",
    "tle1": "1 41179U 15081A   26158.93824464  .00000551  00000-0  15277-3 0  9995",
    "tle2": "2 41179  47.0058  45.7315 0001942 168.5940 191.4991 14.58848089556401",
    "norad_id": "41179"
  },
  {
    "name": "ORBCOMM FM 110",
    "tle1": "1 41182U 15081D   26158.37887223  .00000842  00000-0  21433-3 0  9993",
    "tle2": "2 41182  47.0029  47.8183 0002922  20.9160 339.1845 14.58864970556195",
    "norad_id": "41182"
  },
  {
    "name": "ORBCOMM FM 117",
    "tle1": "1 41188U 15081K   26158.87004529  .00000590  00000-0  16110-3 0  9990",
    "tle2": "2 41188  47.0005 224.8856 0002981 184.7848 175.3010 14.58857943558767",
    "norad_id": "41188"
  },
  {
    "name": "ORBCOMM FM 116",
    "tle1": "1 41189U 15081L   26158.71361229  .00000857  00000-0  21737-3 0  9994",
    "tle2": "2 41189  47.0035 315.4145 0001122   3.5235 356.5659 14.58869594557556",
    "norad_id": "41189"
  },
  {
    "name": "ORBCOMM FM 113",
    "tle1": "1 41185U 15081G   26159.14754797  .00000505  00000-0  14299-3 0  9999",
    "tle2": "2 41185  47.0018 313.3644 0001738 188.1874 171.8983 14.58849184557614",
    "norad_id": "41185"
  },
  {
    "name": "ORBCOMM FM 112",
    "tle1": "1 41184U 15081F   26158.69180097  .00000819  00000-0  20932-3 0  9992",
    "tle2": "2 41184  47.0001 315.1475 0003124 175.6095 184.4819 14.58890878557562",
    "norad_id": "41184"
  },
  {
    "name": "ORBCOMM FM 108",
    "tle1": "1 41187U 15081J   26158.90455547  .00000664  00000-0  17664-3 0  9990",
    "tle2": "2 41187  47.0042 226.0860 0002451 183.9962 176.0905 14.58862128558724",
    "norad_id": "41187"
  },
  {
    "name": "NPP",
    "tle1": "1 37849U 11061A   26159.24783586  .00000068  00000-0  53410-4 0  9997",
    "tle2": "2 37849  98.7952 100.1851 0002019  26.4196 333.7082 14.19515549757176",
    "norad_id": "37849"
  },
  {
    "name": "DMSP 5D-3 F18 (USA 210)",
    "tle1": "1 35951U 09057A   26159.23084762  .00000248  00000-0  15144-3 0  9991",
    "tle2": "2 35951  98.9034 140.0196 0009877 278.1340  81.8712 14.14891748858325",
    "norad_id": "35951"
  },
  {
    "name": "YAOGAN 10",
    "tle1": "1 36834U 10038A   26159.32340573  .00001944  00000-0  23245-3 0  9993",
    "tle2": "2 36834  97.8983 182.7989 0001707  87.5773 329.7570 14.85324180855890",
    "norad_id": "36834"
  }
]